STARLINK-36077          
1 66903U 25283AB  25353.83335647 -.00048492  00000+0 -32851-3 0  9991
2 66903  53.1568  38.1119 0001012  90.0540 339.2256 15.74203119  3566
STARLINK-36059          
1 66904U 25283AC  25353.83335647 -.00054369  00000+0 -36906-3 0  9997
2 66904  53.1569  38.1072 0000779  82.3077 348.8922 15.74205703  3561
STARLINK-36075          
1 66905U 25283AD  25353.83335647 -.00057137  00000+0 -38809-3 0  9998
2 66905  53.1570  38.1038 0001041  83.2718 349.8398 15.74212026  3565
1998-067XS              
1 66906U 98067XS  25353.81788231  .00020233  00000+0  34987-3 0  9996
2 66906  51.6311 107.3061 0002966 238.2809 121.7891 15.50933488  2714
1998-067XT              
1 66907U 98067XT  25353.48808759  .00047666  00000+0  77339-3 0  9995
2 66907  51.6306 108.8528 0003998 265.7173  94.3360 15.52255247  2660
1998-067XU              
1 66908U 98067XU  25352.58606995  .00054298  00000+0  87908-3 0  9996
2 66908  51.6306 113.3296 0003983 260.0245 100.0295 15.52259493  2520
SILVERSAT               
1 66909U 98067XV  25353.55080352  .00049748  00000+0  79912-3 0  9998
2 66909  51.6306 108.5226 0003839 268.6960  91.3590 15.52516520  2671
1998-067XW              
1 66910U 98067XW  25353.54901825  .00043130  00000+0  69409-3 0  9995
2 66910  51.6305 108.5102 0004382 243.3936 116.6605 15.52526300  2677
1998-067XX              
1 66911U 98067XX  25353.80422407  .00052143  00000+0  82359-3 0  9992
2 66911  51.6304 107.2150 0003934 254.2011 105.8545 15.52964022  2707
1998-067XY              
1 66912U 98067XY  25353.61960698  .00038197  00000+0  63264-3 0  9998
2 66912  51.6307 108.2310 0004012 260.8810  99.1725 15.51780846  2678
2025-284A               
1 66913U 25284A   25352.26700647  .00009066  00000+0  46238-3 0  9991
2 66913  80.4052 122.7714 0020368 156.4299 203.7866 15.16462178  1964
2025-284B               
1 66914U 25284B   25350.28554881  .00008068  00000+0  38445-3 0  9991
2 66914  80.4045 125.2713 0008179 234.9626 125.0834 15.18985981  1668
