CCSDS_OMM_VERS = 2.0
CREATION_DATE  = 
ORIGINATOR     = 

OBJECT_NAME    = STARLINK-36077
OBJECT_ID      = 2025-283AB
CENTER_NAME    = EARTH
REF_FRAME      = TEME
TIME_SYSTEM    = UTC
MEAN_ELEMENT_THEORY = SGP/SGP4

EPOCH          = 2025-12-19T20:00:01.999008
MEAN_MOTION    = 15.74203119
ECCENTRICITY   = .0001012
INCLINATION    = 53.1568
RA_OF_ASC_NODE = 38.1119
ARG_OF_PERICENTER = 90.0540
MEAN_ANOMALY   = 339.2256

EPHEMERIS_TYPE = 0
CLASSIFICATION_TYPE = U
NORAD_CAT_ID   = 66903
ELEMENT_SET_NO = 999
REV_AT_EPOCH   = 356
BSTAR          = -.32851E-3
MEAN_MOTION_DOT = -.48492E-3
MEAN_MOTION_DDOT = 0

CCSDS_OMM_VERS = 2.0
CREATION_DATE  = 
ORIGINATOR     = 

OBJECT_NAME    = STARLINK-36059
OBJECT_ID      = 2025-283AC
CENTER_NAME    = EARTH
REF_FRAME      = TEME
TIME_SYSTEM    = UTC
MEAN_ELEMENT_THEORY = SGP/SGP4

EPOCH          = 2025-12-19T20:00:01.999008
MEAN_MOTION    = 15.74205703
ECCENTRICITY   = .0000779
INCLINATION    = 53.1569
RA_OF_ASC_NODE = 38.1072
ARG_OF_PERICENTER = 82.3077
MEAN_ANOMALY   = 348.8922

EPHEMERIS_TYPE = 0
CLASSIFICATION_TYPE = U
NORAD_CAT_ID   = 66904
ELEMENT_SET_NO = 999
REV_AT_EPOCH   = 356
BSTAR          = -.36906E-3
MEAN_MOTION_DOT = -.54369E-3
MEAN_MOTION_DDOT = 0

CCSDS_OMM_VERS = 2.0
CREATION_DATE  = 
ORIGINATOR     = 

OBJECT_NAME    = STARLINK-36075
OBJECT_ID      = 2025-283AD
CENTER_NAME    = EARTH
REF_FRAME      = TEME
TIME_SYSTEM    = UTC
MEAN_ELEMENT_THEORY = SGP/SGP4

EPOCH          = 2025-12-19T20:00:01.999008
MEAN_MOTION    = 15.74212026
ECCENTRICITY   = .0001041
INCLINATION    = 53.1570
RA_OF_ASC_NODE = 38.1038
ARG_OF_PERICENTER = 83.2718
MEAN_ANOMALY   = 349.8398

EPHEMERIS_TYPE = 0
CLASSIFICATION_TYPE = U
NORAD_CAT_ID   = 66905
ELEMENT_SET_NO = 999
REV_AT_EPOCH   = 356
BSTAR          = -.38809E-3
MEAN_MOTION_DOT = -.57137E-3
MEAN_MOTION_DDOT = 0

CCSDS_OMM_VERS = 2.0
CREATION_DATE  = 
ORIGINATOR     = 

OBJECT_NAME    = 1998-067XS
OBJECT_ID      = 1998-067XS
CENTER_NAME    = EARTH
REF_FRAME      = TEME
TIME_SYSTEM    = UTC
MEAN_ELEMENT_THEORY = SGP/SGP4

EPOCH          = 2025-12-19T19:37:45.031584
MEAN_MOTION    = 15.50933488
ECCENTRICITY   = .0002966
INCLINATION    = 51.6311
RA_OF_ASC_NODE = 107.3061
ARG_OF_PERICENTER = 238.2809
MEAN_ANOMALY   = 121.7891

EPHEMERIS_TYPE = 0
CLASSIFICATION_TYPE = U
NORAD_CAT_ID   = 66906
ELEMENT_SET_NO = 999
REV_AT_EPOCH   = 271
BSTAR          = .34987E-3
MEAN_MOTION_DOT = .20233E-3
MEAN_MOTION_DDOT = 0

CCSDS_OMM_VERS = 2.0
CREATION_DATE  = 
ORIGINATOR     = 

OBJECT_NAME    = 1998-067XT
OBJECT_ID      = 1998-067XT
CENTER_NAME    = EARTH
REF_FRAME      = TEME
TIME_SYSTEM    = UTC
MEAN_ELEMENT_THEORY = SGP/SGP4

EPOCH          = 2025-12-19T11:42:50.767776
MEAN_MOTION    = 15.52255247
ECCENTRICITY   = .0003998
INCLINATION    = 51.6306
RA_OF_ASC_NODE = 108.8528
ARG_OF_PERICENTER = 265.7173
MEAN_ANOMALY   = 94.3360

EPHEMERIS_TYPE = 0
CLASSIFICATION_TYPE = U
NORAD_CAT_ID   = 66907
ELEMENT_SET_NO = 999
REV_AT_EPOCH   = 266
BSTAR          = .77339E-3
MEAN_MOTION_DOT = .47666E-3
MEAN_MOTION_DDOT = 0

CCSDS_OMM_VERS = 2.0
CREATION_DATE  = 
ORIGINATOR     = 

OBJECT_NAME    = 1998-067XU
OBJECT_ID      = 1998-067XU
CENTER_NAME    = EARTH
REF_FRAME      = TEME
TIME_SYSTEM    = UTC
MEAN_ELEMENT_THEORY = SGP/SGP4

EPOCH          = 2025-12-18T14:03:56.443680
MEAN_MOTION    = 15.52259493
ECCENTRICITY   = .00039838
INCLINATION    = 51.6306
RA_OF_ASC_NODE = 113.3296
ARG_OF_PERICENTER = 260.0245
MEAN_ANOMALY   = 100.0295

EPHEMERIS_TYPE = 0
CLASSIFICATION_TYPE = U
NORAD_CAT_ID   = 66908
ELEMENT_SET_NO = 999
REV_AT_EPOCH   = 252
BSTAR          = .87908108E-3
MEAN_MOTION_DOT = .54298E-3
MEAN_MOTION_DDOT = 0

CCSDS_OMM_VERS = 2.0
CREATION_DATE  = 
ORIGINATOR     = 

OBJECT_NAME    = SILVERSAT
OBJECT_ID      = 1998-067XV
CENTER_NAME    = EARTH
REF_FRAME      = TEME
TIME_SYSTEM    = UTC
MEAN_ELEMENT_THEORY = SGP/SGP4

EPOCH          = 2025-12-19T13:13:09.424128
MEAN_MOTION    = 15.52516520
ECCENTRICITY   = .0003839
INCLINATION    = 51.6306
RA_OF_ASC_NODE = 108.5226
ARG_OF_PERICENTER = 268.6960
MEAN_ANOMALY   = 91.3590

EPHEMERIS_TYPE = 0
CLASSIFICATION_TYPE = U
NORAD_CAT_ID   = 66909
ELEMENT_SET_NO = 999
REV_AT_EPOCH   = 267
BSTAR          = .79912E-3
MEAN_MOTION_DOT = .49748E-3
MEAN_MOTION_DDOT = 0

CCSDS_OMM_VERS = 2.0
CREATION_DATE  = 
ORIGINATOR     = 

OBJECT_NAME    = 1998-067XW
OBJECT_ID      = 1998-067XW
CENTER_NAME    = EARTH
REF_FRAME      = TEME
TIME_SYSTEM    = UTC
MEAN_ELEMENT_THEORY = SGP/SGP4

EPOCH          = 2025-12-19T13:10:35.176800
MEAN_MOTION    = 15.52526300
ECCENTRICITY   = .0004382
INCLINATION    = 51.6305
RA_OF_ASC_NODE = 108.5102
ARG_OF_PERICENTER = 243.3936
MEAN_ANOMALY   = 116.6605

EPHEMERIS_TYPE = 0
CLASSIFICATION_TYPE = U
NORAD_CAT_ID   = 66910
ELEMENT_SET_NO = 999
REV_AT_EPOCH   = 267
BSTAR          = .69409E-3
MEAN_MOTION_DOT = .4313E-3
MEAN_MOTION_DDOT = 0

CCSDS_OMM_VERS = 2.0
CREATION_DATE  = 
ORIGINATOR     = 

OBJECT_NAME    = 1998-067XX
OBJECT_ID      = 1998-067XX
CENTER_NAME    = EARTH
REF_FRAME      = TEME
TIME_SYSTEM    = UTC
MEAN_ELEMENT_THEORY = SGP/SGP4

EPOCH          = 2025-12-19T19:18:04.959648
MEAN_MOTION    = 15.52964022
ECCENTRICITY   = .0003934
INCLINATION    = 51.6304
RA_OF_ASC_NODE = 107.2150
ARG_OF_PERICENTER = 254.2011
MEAN_ANOMALY   = 105.8545

EPHEMERIS_TYPE = 0
CLASSIFICATION_TYPE = U
NORAD_CAT_ID   = 66911
ELEMENT_SET_NO = 999
REV_AT_EPOCH   = 270
BSTAR          = .82359E-3
MEAN_MOTION_DOT = .52143E-3
MEAN_MOTION_DDOT = 0

CCSDS_OMM_VERS = 2.0
CREATION_DATE  = 
ORIGINATOR     = 

OBJECT_NAME    = 1998-067XY
OBJECT_ID      = 1998-067XY
CENTER_NAME    = EARTH
REF_FRAME      = TEME
TIME_SYSTEM    = UTC
MEAN_ELEMENT_THEORY = SGP/SGP4

EPOCH          = 2025-12-19T14:52:14.043072
MEAN_MOTION    = 15.51780846
ECCENTRICITY   = .0004012
INCLINATION    = 51.6307
RA_OF_ASC_NODE = 108.2310
ARG_OF_PERICENTER = 260.8810
MEAN_ANOMALY   = 99.1725

EPHEMERIS_TYPE = 0
CLASSIFICATION_TYPE = U
NORAD_CAT_ID   = 66912
ELEMENT_SET_NO = 999
REV_AT_EPOCH   = 267
BSTAR          = .63264E-3
MEAN_MOTION_DOT = .38197E-3
MEAN_MOTION_DDOT = 0

CCSDS_OMM_VERS = 2.0
CREATION_DATE  = 
ORIGINATOR     = 

OBJECT_NAME    = 2025-284A
OBJECT_ID      = 2025-284A
CENTER_NAME    = EARTH
REF_FRAME      = TEME
TIME_SYSTEM    = UTC
MEAN_ELEMENT_THEORY = SGP/SGP4

EPOCH          = 2025-12-18T06:24:29.359008
MEAN_MOTION    = 15.16462178
ECCENTRICITY   = .00203688
INCLINATION    = 80.4052
RA_OF_ASC_NODE = 122.7714
ARG_OF_PERICENTER = 156.4299
MEAN_ANOMALY   = 203.7866

EPHEMERIS_TYPE = 0
CLASSIFICATION_TYPE = U
NORAD_CAT_ID   = 66913
ELEMENT_SET_NO = 999
REV_AT_EPOCH   = 196
BSTAR          = .46237905E-3
MEAN_MOTION_DOT = .9066E-4
MEAN_MOTION_DDOT = 0

CCSDS_OMM_VERS = 2.0
CREATION_DATE  = 
ORIGINATOR     = 

OBJECT_NAME    = 2025-284B
OBJECT_ID      = 2025-284B
CENTER_NAME    = EARTH
REF_FRAME      = TEME
TIME_SYSTEM    = UTC
MEAN_ELEMENT_THEORY = SGP/SGP4

EPOCH          = 2025-12-16T06:51:11.417184
MEAN_MOTION    = 15.18985981
ECCENTRICITY   = .00081793
INCLINATION    = 80.4045
RA_OF_ASC_NODE = 125.2713
ARG_OF_PERICENTER = 234.9626
MEAN_ANOMALY   = 125.0834

EPHEMERIS_TYPE = 0
CLASSIFICATION_TYPE = U
NORAD_CAT_ID   = 66914
ELEMENT_SET_NO = 999
REV_AT_EPOCH   = 166
BSTAR          = .38444995E-3
MEAN_MOTION_DOT = .8068E-4
MEAN_MOTION_DDOT = 0

